{
  "type": "FeatureCollection",
  "features": [
    {
      "type": "Feature",
      "properties": {
        "norad_id": 66429,
        "name": "STARLINK-35533",
        "group": "last-30-days",
        "lat": 8.373558839724064,
        "lon": -134.9817506498584,
        "alt_km": 442.55986537235185,
        "timestamp": "2025-12-11T15:53:38.291968+00:00",
        "meta_object_name": "STARLINK-35533",
        "meta_object_id": "2025-259H",
        "meta_epoch": "2025-12-11T05:50:07.256256",
        "meta_mean_motion": 15.40762223,
        "meta_eccentricity": 4.741e-05,
        "meta_inclination": 42.9965,
        "meta_ra_of_asc_node": 56.5241,
        "meta_arg_of_pericenter": 314.1896,
        "meta_mean_anomaly": 45.8921,
        "meta_ephemeris_type": 0,
        "meta_classification_type": "U",
        "meta_norad_cat_id": 66429,
        "meta_element_set_no": 999,
        "meta_rev_at_epoch": 593,
        "meta_bstar": 0.0018530133,
        "meta_mean_motion_dot": 0.00078058,
        "meta_mean_motion_ddot": 0,
        "tle_line1": "1 66429U 25259H   25345.24313954  .00078058  00000+0  18530-2 0  9996",
        "tle_line2": "2 66429  42.9965  56.5241 0000474 314.1896  45.8921 15.40762223  5932"
      },
      "geometry": {
        "type": "Point",
        "coordinates": [
          -134.9817506498584,
          8.373558839724064
        ]
      }
    },
    {
      "type": "Feature",
      "properties": {
        "norad_id": 66430,
        "name": "STARLINK-35470",
        "group": "last-30-days",
        "lat": 0.1257685072731806,
        "lon": -126.05875099569779,
        "alt_km": 444.3794550422799,
        "timestamp": "2025-12-11T15:53:38.291980+00:00",
        "meta_object_name": "STARLINK-35470",
        "meta_object_id": "2025-259J",
        "meta_epoch": "2025-12-11T00:00:02.999808",
        "meta_mean_motion": 15.40730999,
        "meta_eccentricity": 0.00011998,
        "meta_inclination": 43.0006,
        "meta_ra_of_asc_node": 57.8929,
        "meta_arg_of_pericenter": 281.4628,
        "meta_mean_anomaly": 181.0376,
        "meta_ephemeris_type": 0,
        "meta_classification_type": "U",
        "meta_norad_cat_id": 66430,
        "meta_element_set_no": 999,
        "meta_rev_at_epoch": 600,
        "meta_bstar": -0.0027136355,
        "meta_mean_motion_dot": -0.00112122,
        "meta_mean_motion_ddot": 0,
        "tle_line1": "1 66430U 25259J   25345.00003472 -.00112122  00000+0 -27136-2 0  9998",
        "tle_line2": "2 66430  43.0006  57.8929 0001199 281.4628 181.0376 15.40730999  6004"
      },
      "geometry": {
        "type": "Point",
        "coordinates": [
          -126.05875099569779,
          0.1257685072731806
        ]
      }
    },
    {
      "type": "Feature",
      "properties": {
        "norad_id": 66431,
        "name": "STARLINK-35439",
        "group": "last-30-days",
        "lat": -8.535395023668851,
        "lon": -116.68546876664342,
        "alt_km": 444.86050544556383,
        "timestamp": "2025-12-11T15:53:38.291991+00:00",
        "meta_object_name": "STARLINK-35439",
        "meta_object_id": "2025-259K",
        "meta_epoch": "2025-12-11T05:43:40.113408",
        "meta_mean_motion": 15.40778298,
        "meta_eccentricity": 0.0001307,
        "meta_inclination": 42.9989,
        "meta_ra_of_asc_node": 56.4879,
        "meta_arg_of_pericenter": 313.6819,
        "meta_mean_anomaly": 46.3929,
        "meta_ephemeris_type": 0,
        "meta_classification_type": "U",
        "meta_norad_cat_id": 66431,
        "meta_element_set_no": 999,
        "meta_rev_at_epoch": 593,
        "meta_bstar": 0.0023977894,
        "meta_mean_motion_dot": 0.00101463,
        "meta_mean_motion_ddot": 0,
        "tle_line1": "1 66431U 25259K   25345.23865872  .00101463  00000+0  23978-2 0  9998",
        "tle_line2": "2 66431  42.9989  56.4879 0001307 313.6819  46.3929 15.40778298  5935"
      },
      "geometry": {
        "type": "Point",
        "coordinates": [
          -116.68546876664342,
          -8.535395023668851
        ]
      }
    },
    {
      "type": "Feature",
      "properties": {
        "norad_id": 66432,
        "name": "STARLINK-35446",
        "group": "last-30-days",
        "lat": -16.557384818052586,
        "lon": -107.38173824964035,
        "alt_km": 445.4778201728559,
        "timestamp": "2025-12-11T15:53:38.292006+00:00",
        "meta_object_name": "STARLINK-35446",
        "meta_object_id": "2025-259L",
        "meta_epoch": "2025-12-11T00:00:02.999808",
        "meta_mean_motion": 15.40743077,
        "meta_eccentricity": 0.00013461,
        "meta_inclination": 43.0003,
        "meta_ra_of_asc_node": 57.83,
        "meta_arg_of_pericenter": 252.2205,
        "meta_mean_anomaly": 235.174,
        "meta_ephemeris_type": 0,
        "meta_classification_type": "U",
        "meta_norad_cat_id": 66432,
        "meta_element_set_no": 999,
        "meta_rev_at_epoch": 600,
        "meta_bstar": -0.0030952621,
        "meta_mean_motion_dot": -0.00127643,
        "meta_mean_motion_ddot": 0,
        "tle_line1": "1 66432U 25259L   25345.00003472 -.00127643  00000+0 -30953-2 0  9995",
        "tle_line2": "2 66432  43.0003  57.8300 0001346 252.2205 235.1740 15.40743077  6004"
      },
      "geometry": {
        "type": "Point",
        "coordinates": [
          -107.38173824964035,
          -16.557384818052586
        ]
      }
    },
    {
      "type": "Feature",
      "properties": {
        "norad_id": 66433,
        "name": "STARLINK-35457",
        "group": "last-30-days",
        "lat": -24.352992146246397,
        "lon": -96.95389048051935,
        "alt_km": 445.7371101886556,
        "timestamp": "2025-12-11T15:53:38.292018+00:00",
        "meta_object_name": "STARLINK-35457",
        "meta_object_id": "2025-259M",
        "meta_epoch": "2025-12-11T06:00:02.999808",
        "meta_mean_motion": 15.40666271,
        "meta_eccentricity": 0.00012903,
        "meta_inclination": 42.9998,
        "meta_ra_of_asc_node": 56.3613,
        "meta_arg_of_pericenter": 246.8532,
        "meta_mean_anomaly": 201.2897,
        "meta_ephemeris_type": 0,
        "meta_classification_type": "U",
        "meta_norad_cat_id": 66433,
        "meta_element_set_no": 999,
        "meta_rev_at_epoch": 604,
        "meta_bstar": -0.00029310557,
        "meta_mean_motion_dot": -0.00012513,
        "meta_mean_motion_ddot": 0,
        "tle_line1": "1 66433U 25259M   25345.25003472 -.00012513  00000+0 -29311-3 0  9999",
        "tle_line2": "2 66433  42.9998  56.3613 0001290 246.8532 201.2897 15.40666271  6048"
      },
      "geometry": {
        "type": "Point",
        "coordinates": [
          -96.95389048051935,
          -24.352992146246397
        ]
      }
    },
    {
      "type": "Feature",
      "properties": {
        "norad_id": 66434,
        "name": "STARLINK-35389",
        "group": "last-30-days",
        "lat": -31.302957774804753,
        "lon": -85.30906100050275,
        "alt_km": 446.2712422950144,
        "timestamp": "2025-12-11T15:53:38.292029+00:00",
        "meta_object_name": "STARLINK-35389",
        "meta_object_id": "2025-259N",
        "meta_epoch": "2025-12-11T08:00:01.999872",
        "meta_mean_motion": 15.40696845,
        "meta_eccentricity": 0.00013109,
        "meta_inclination": 42.9998,
        "meta_ra_of_asc_node": 55.8522,
        "meta_arg_of_pericenter": 267.2304,
        "meta_mean_anomaly": 296.0245,
        "meta_ephemeris_type": 0,
        "meta_classification_type": "U",
        "meta_norad_cat_id": 66434,
        "meta_element_set_no": 999,
        "meta_rev_at_epoch": 605,
        "meta_bstar": -0.0014916975,
        "meta_mean_motion_dot": -0.00062103,
        "meta_mean_motion_ddot": 0,
        "tle_line1": "1 66434U 25259N   25345.33335648 -.00062103  00000+0 -14917-2 0  9997",
        "tle_line2": "2 66434  42.9998  55.8522 0001310 267.2304 296.0245 15.40696845  6059"
      },
      "geometry": {
        "type": "Point",
        "coordinates": [
          -85.30906100050275,
          -31.302957774804753
        ]
      }
    },
    {
      "type": "Feature",
      "properties": {
        "norad_id": 66435,
        "name": "STARLINK-35502",
        "group": "last-30-days",
        "lat": -37.037133946418244,
        "lon": -72.00070671771536,
        "alt_km": 446.7512802770789,
        "timestamp": "2025-12-11T15:53:38.292040+00:00",
        "meta_object_name": "STARLINK-35502",
        "meta_object_id": "2025-259P",
        "meta_epoch": "2025-12-11T08:00:01.999872",
        "meta_mean_motion": 15.40689555,
        "meta_eccentricity": 8.886e-05,
        "meta_inclination": 42.9997,
        "meta_ra_of_asc_node": 55.8224,
        "meta_arg_of_pericenter": 270.0342,
        "meta_mean_anomaly": 305.6553,
        "meta_ephemeris_type": 0,
        "meta_classification_type": "U",
        "meta_norad_cat_id": 66435,
        "meta_element_set_no": 999,
        "meta_rev_at_epoch": 605,
        "meta_bstar": -0.0011781091,
        "meta_mean_motion_dot": -0.00049181,
        "meta_mean_motion_ddot": 0,
        "tle_line1": "1 66435U 25259P   25345.33335648 -.00049181  00000+0 -11781-2 0  9995",
        "tle_line2": "2 66435  42.9997  55.8224 0000888 270.0342 305.6553 15.40689555  6050"
      },
      "geometry": {
        "type": "Point",
        "coordinates": [
          -72.00070671771536,
          -37.037133946418244
        ]
      }
    }
  ]
}